NORAD_CAT_ID,OBJECT_NAME,OBJECT_TYPE,EPOCH,MEAN_MOTION,ECCENTRICITY,INCLINATION,RA_OF_ASC_NODE,ARG_OF_PERICENTER,MEAN_ANOMALY,BSTAR,MEAN_MOTION_DOT,MEAN_MOTION_DDOT,TLE_LINE0,TLE_LINE1,TLE_LINE2,SEMIMAJOR_AXIS,PERIOD,APOGEE,PERIGEE,DECAYED
52992.0,STARLINK-4269,PAYLOAD,2024-08-19 10:58:29,15.08852762,0.0001935,53.2159,130.5436,52.87,307.2468,0.00024404,3.599e-05,0.0,0 STARLINK-4269,1 52992U 22076G   24232.45728927  .00003599  00000-0  24404-3 0  9994,2 52992  53.2159 130.5436 0001935  52.8700 307.2468 15.08852762117548,6917.841,95.437,541.045,538.368,0.0
52992.0,STARLINK-4269,PAYLOAD,2024-08-19 17:20:02,15.08841981,0.000192,53.2155,129.348,91.7035,268.4177,4.9647e-05,5.02e-06,0.0,0 STARLINK-4269,1 52992U 22076G   24232.72225269  .00000502  00000-0  49647-4 0  9993,2 52992  53.2155 129.3480 0001920  91.7035 268.4177 15.08841981117586,6917.874,95.437,541.068,538.411,0.0
52992.0,STARLINK-4269,PAYLOAD,2024-08-19 23:41:35,15.08836339,0.0001587,53.2161,128.161,81.1565,278.9606,-2.8489e-05,-7.41e-06,0.0,0 STARLINK-4269,1 52992U 22076G   24232.98721552 -.00000741  00000-0 -28489-4 0  9995,2 52992  53.2161 128.1610 0001587  81.1565 278.9606 15.08836339117152,6917.892,95.438,540.854,538.659,0.0
52992.0,STARLINK-4269,PAYLOAD,2024-08-20 20:21:35,15.08845439,0.0001433,53.2159,124.2936,96.7916,263.324,0.00011945,1.614e-05,0.0,0 STARLINK-4269,1 52992U 22076G   24233.84833211  .00001614  00000-0  11945-3 0  9993,2 52992  53.2159 124.2936 0001433  96.7916 263.3240 15.08845439117758,6917.864,95.437,540.72,538.737,0.0
52992.0,STARLINK-4269,PAYLOAD,2024-08-20 21:56:59,15.08847713,0.0001474,53.2161,123.9969,92.0646,268.0514,0.00019015,2.74e-05,0.0,0 STARLINK-4269,1 52992U 22076G   24233.91457185  .00002740  00000-0  19015-3 0  9990,2 52992  53.2161 123.9969 0001474  92.0646 268.0514 15.08847713117299,6917.857,95.437,540.742,538.702,0.0
52992.0,STARLINK-4269,PAYLOAD,2024-08-21 20:12:23,15.08842103,0.0001506,53.2157,119.8334,103.0744,257.0417,0.00025123,3.713e-05,0.0,0 STARLINK-4269,1 52992U 22076G   24234.84193739  .00003713  00000-0  25123-3 0  9993,2 52992  53.2157 119.8334 0001506 103.0744 257.0417 15.08842103117908,6917.874,95.437,540.781,538.697,0.0
